[{"OBJECT_NAME":"IRIDIUM 152","OBJECT_ID":"2018-047D","EPOCH":"2026-04-27T10:47:50.241120","MEAN_MOTION":14.34217772,"ECCENTRICITY":0.0002213,"INCLINATION":86.3919,"RA_OF_ASC_NODE":109.5503,"ARG_OF_PERICENTER":91.7749,"MEAN_ANOMALY":268.37,"EPHEMERIS_TYPE":0,"CLASSIFICATION_TYPE":"U","NORAD_CAT_ID":43479,"ELEMENT_SET_NO":999,"REV_AT_EPOCH":41521,"BSTAR":1.0382e-5,"MEAN_MOTION_DOT":4.9e-7,"MEAN_MOTION_DDOT":0},{"OBJECT_NAME":"IRIDIUM 147","OBJECT_ID":"2018-047E","EPOCH":"2026-04-27T09:16:30.234720","MEAN_MOTION":14.34217803,"ECCENTRICITY":0.0002341,"INCLINATION":86.3921,"RA_OF_ASC_NODE":109.5812,"ARG_OF_PERICENTER":86.7855,"MEAN_ANOMALY":273.3608,"EPHEMERIS_TYPE":0,"CLASSIFICATION_TYPE":"U","NORAD_CAT_ID":43480,"ELEMENT_SET_NO":999,"REV_AT_EPOCH":41520,"BSTAR":1.7076e-5,"MEAN_MOTION_DOT":6.8e-7,"MEAN_MOTION_DDOT":0},{"OBJECT_NAME":"IRIDIUM 110","OBJECT_ID":"2018-047F","EPOCH":"2026-04-27T09:25:38.093664","MEAN_MOTION":14.34217525,"ECCENTRICITY":0.0001852,"INCLINATION":86.3929,"RA_OF_ASC_NODE":109.6691,"ARG_OF_PERICENTER":95.605,"MEAN_ANOMALY":264.5357,"EPHEMERIS_TYPE":0,"CLASSIFICATION_TYPE":"U","NORAD_CAT_ID":43481,"ELEMENT_SET_NO":999,"REV_AT_EPOCH":41519,"BSTAR":-4.1137e-6,"MEAN_MOTION_DOT":8.0e-8,"MEAN_MOTION_DDOT":0},{"OBJECT_NAME":"IRIDIUM 162","OBJECT_ID":"2018-047G","EPOCH":"2026-04-27T09:54:01.384992","MEAN_MOTION":14.43281692,"ECCENTRICITY":0.0002409,"INCLINATION":86.4445,"RA_OF_ASC_NODE":109.5969,"ARG_OF_PERICENTER":91.5605,"MEAN_ANOMALY":268.5871,"EPHEMERIS_TYPE":0,"CLASSIFICATION_TYPE":"U","NORAD_CAT_ID":43482,"ELEMENT_SET_NO":999,"REV_AT_EPOCH":41780,"BSTAR":4.7466e-5,"MEAN_MOTION_DOT":1.8e-6,"MEAN_MOTION_DDOT":0},{"OBJECT_NAME":"IRIDIUM 160","OBJECT_ID":"2018-061A","EPOCH":"2026-04-27T09:48:06.460704","MEAN_MOTION":14.34217602,"ECCENTRICITY":0.0002122,"INCLINATION":86.3942,"RA_OF_ASC_NODE":78.0258,"ARG_OF_PERICENTER":86.1106,"MEAN_ANOMALY":274.0333,"EPHEMERIS_TYPE":0,"CLASSIFICATION_TYPE":"U","NORAD_CAT_ID":43569,"ELEMENT_SET_NO":999,"REV_AT_EPOCH":40609,"BSTAR":1.8802e-5,"MEAN_MOTION_DOT":7.2e-7,"MEAN_MOTION_DDOT":0},{"OBJECT_NAME":"IRIDIUM 166","OBJECT_ID":"2018-061B","EPOCH":"2026-04-27T10:24:40.133376","MEAN_MOTION":14.34218598,"ECCENTRICITY":0.0002355,"INCLINATION":86.3939,"RA_OF_ASC_NODE":77.9662,"ARG_OF_PERICENTER":83.9131,"MEAN_ANOMALY":276.2333,"EPHEMERIS_TYPE":0,"CLASSIFICATION_TYPE":"U","NORAD_CAT_ID":43570,"ELEMENT_SET_NO":999,"REV_AT_EPOCH":40612,"BSTAR":8.9923e-5,"MEAN_MOTION_DOT":2.72e-6,"MEAN_MOTION_DDOT":0},{"OBJECT_NAME":"IRIDIUM 158","OBJECT_ID":"2018-061C","EPOCH":"2026-04-27T09:38:58.485120","MEAN_MOTION":14.34217747,"ECCENTRICITY":0.0002288,"INCLINATION":86.3939,"RA_OF_ASC_NODE":77.9894,"ARG_OF_PERICENTER":89.5605,"MEAN_ANOMALY":270.5853,"EPHEMERIS_TYPE":0,"CLASSIFICATION_TYPE":"U","NORAD_CAT_ID":43571,"ELEMENT_SET_NO":999,"REV_AT_EPOCH":40608,"BSTAR":6.1573e-6,"MEAN_MOTION_DOT":3.7e-7,"MEAN_MOTION_DDOT":0},{"OBJECT_NAME":"IRIDIUM 165","OBJECT_ID":"2018-061D","EPOCH":"2026-04-27T10:15:30.494592","MEAN_MOTION":14.34217645,"ECCENTRICITY":0.0002343,"INCLINATION":86.3941,"RA_OF_ASC_NODE":78.0242,"ARG_OF_PERICENTER":83.8043,"MEAN_ANOMALY":276.3419,"EPHEMERIS_TYPE":0,"CLASSIFICATION_TYPE":"U","NORAD_CAT_ID":43572,"ELEMENT_SET_NO":999,"REV_AT_EPOCH":40611,"BSTAR":4.7467e-6,"MEAN_MOTION_DOT":3.3e-7,"MEAN_MOTION_DDOT":0},{"OBJECT_NAME":"IRIDIUM 155","OBJECT_ID":"2018-061E","EPOCH":"2026-04-27T09:20:42.495072","MEAN_MOTION":14.34217716,"ECCENTRICITY":0.0002393,"INCLINATION":86.3937,"RA_OF_ASC_NODE":77.9116,"ARG_OF_PERICENTER":87.7635,"MEAN_ANOMALY":272.3835,"EPHEMERIS_TYPE":0,"CLASSIFICATION_TYPE":"U","NORAD_CAT_ID":43573,"ELEMENT_SET_NO":999,"REV_AT_EPOCH":40607,"BSTAR":1.5047e-5,"MEAN_MOTION_DOT":6.2e-7,"MEAN_MOTION_DDOT":0},{"OBJECT_NAME":"IRIDIUM 154","OBJECT_ID":"2018-061F","EPOCH":"2026-04-27T08:53:18.475008","MEAN_MOTION":14.34217782,"ECCENTRICITY":0.0002309,"INCLINATION":86.3941,"RA_OF_ASC_NODE":78.0508,"ARG_OF_PERICENTER":82.7596,"MEAN_ANOMALY":277.3862,"EPHEMERIS_TYPE":0,"CLASSIFICATION_TYPE":"U","NORAD_CAT_ID":43574,"ELEMENT_SET_NO":999,"REV_AT_EPOCH":40612,"BSTAR":2.2358e-5,"MEAN_MOTION_DOT":8.2e-7,"MEAN_MOTION_DDOT":0},{"OBJECT_NAME":"IRIDIUM 163","OBJECT_ID":"2018-061G","EPOCH":"2026-04-27T08:25:54.429024","MEAN_MOTION":14.34218613,"ECCENTRICITY":0.0002223,"INCLINATION":86.394,"RA_OF_ASC_NODE":77.9756,"ARG_OF_PERICENTER":89.3613,"MEAN_ANOMALY":270.7838,"EPHEMERIS_TYPE":0,"CLASSIFICATION_TYPE":"U","NORAD_CAT_ID":43575,"ELEMENT_SET_NO":999,"REV_AT_EPOCH":40609,"BSTAR":5.9308e-5,"MEAN_MOTION_DOT":1.86e-6,"MEAN_MOTION_DDOT":0},{"OBJECT_NAME":"IRIDIUM 156","OBJECT_ID":"2018-061H","EPOCH":"2026-04-27T09:29:50.519040","MEAN_MOTION":14.34217775,"ECCENTRICITY":0.0002423,"INCLINATION":86.3938,"RA_OF_ASC_NODE":77.9642,"ARG_OF_PERICENTER":86.7903,"MEAN_ANOMALY":273.357,"EPHEMERIS_TYPE":0,"CLASSIFICATION_TYPE":"U","NORAD_CAT_ID":43576,"ELEMENT_SET_NO":999,"REV_AT_EPOCH":40609,"BSTAR":1.3463e-5,"MEAN_MOTION_DOT":5.7e-7,"MEAN_MOTION_DDOT":0},{"OBJECT_NAME":"IRIDIUM 164","OBJECT_ID":"2018-061J","EPOCH":"2026-04-27T10:42:54.468864","MEAN_MOTION":14.3421738,"ECCENTRICITY":0.0002266,"INCLINATION":86.394,"RA_OF_ASC_NODE":77.9824,"ARG_OF_PERICENTER":81.0628,"MEAN_ANOMALY":279.0824,"EPHEMERIS_TYPE":0,"CLASSIFICATION_TYPE":"U","NORAD_CAT_ID":43577,"ELEMENT_SET_NO":999,"REV_AT_EPOCH":40614,"BSTAR":4.5725e-5,"MEAN_MOTION_DOT":1.48e-6,"MEAN_MOTION_DDOT":0},{"OBJECT_NAME":"IRIDIUM 159","OBJECT_ID":"2018-061K","EPOCH":"2026-04-27T09:57:14.443200","MEAN_MOTION":14.34217599,"ECCENTRICITY":0.0002053,"INCLINATION":86.394,"RA_OF_ASC_NODE":77.934,"ARG_OF_PERICENTER":87.4128,"MEAN_ANOMALY":272.7303,"EPHEMERIS_TYPE":0,"CLASSIFICATION_TYPE":"U","NORAD_CAT_ID":43578,"ELEMENT_SET_NO":999,"REV_AT_EPOCH":40610,"BSTAR":-1.1095e-5,"MEAN_MOTION_DOT":-1.1e-7,"MEAN_MOTION_DDOT":0},{"OBJECT_NAME":"IRIDIUM 180","OBJECT_ID":"2019-002A","EPOCH":"2026-04-27T09:56:30.818112","MEAN_MOTION":14.34218682,"ECCENTRICITY":0.000209,"INCLINATION":86.4015,"RA_OF_ASC_NODE":14.8159,"ARG_OF_PERICENTER":85.6686,"MEAN_ANOMALY":274.4748,"EPHEMERIS_TYPE":0,"CLASSIFICATION_TYPE":"U","NORAD_CAT_ID":43922,"ELEMENT_SET_NO":999,"REV_AT_EPOCH":38171,"BSTAR":6.3072e-5,"MEAN_MOTION_DOT":1.96e-6,"MEAN_MOTION_DDOT":0},{"OBJECT_NAME":"IRIDIUM 176","OBJECT_ID":"2019-002B","EPOCH":"2026-04-27T10:55:17.861376","MEAN_MOTION":14.72259697,"ECCENTRICITY":0.0002468,"INCLINATION":86.6134,"RA_OF_ASC_NODE":14.7496,"ARG_OF_PERICENTER":82.1023,"MEAN_ANOMALY":278.0474,"EPHEMERIS_TYPE":0,"CLASSIFICATION_TYPE":"U","NORAD_CAT_ID":43923,"ELEMENT_SET_NO":999,"REV_AT_EPOCH":39178,"BSTAR":0.0001219,"MEAN_MOTION_DOT":7.93e-6,"MEAN_MOTION_DDOT":0},{"OBJECT_NAME":"IRIDIUM 168","OBJECT_ID":"2019-002C","EPOCH":"2026-04-27T06:26:27.894624","MEAN_MOTION":14.34220643,"ECCENTRICITY":0.0002148,"INCLINATION":86.4016,"RA_OF_ASC_NODE":14.9525,"ARG_OF_PERICENTER":84.537,"MEAN_ANOMALY":275.6071,"EPHEMERIS_TYPE":0,"CLASSIFICATION_TYPE":"U","NORAD_CAT_ID":43924,"ELEMENT_SET_NO":999,"REV_AT_EPOCH":38167,"BSTAR":8.6839e-5,"MEAN_MOTION_DOT":2.63e-6,"MEAN_MOTION_DDOT":0}]
