IRIDIUM 152             
1 43479U 18047D   26117.44988705  .00000049  00000+0  10382-4 0  9999
2 43479  86.3919 109.5503 0002213  91.7749 268.3700 14.34217772415210
IRIDIUM 147             
1 43480U 18047E   26117.38646105  .00000068  00000+0  17076-4 0  9997
2 43480  86.3921 109.5812 0002341  86.7855 273.3608 14.34217803415209
IRIDIUM 110             
1 43481U 18047F   26117.39280201  .00000008  00000+0 -41137-5 0  9991
2 43481  86.3929 109.6691 0001852  95.6050 264.5357 14.34217525415198
IRIDIUM 162             
1 43482U 18047G   26117.41251603  .00000180  00000+0  47466-4 0  9999
2 43482  86.4445 109.5969 0002409  91.5605 268.5871 14.43281692417801
IRIDIUM 160             
1 43569U 18061A   26117.40840811  .00000072  00000+0  18802-4 0  9997
2 43569  86.3942  78.0258 0002122  86.1106 274.0333 14.34217602406091
IRIDIUM 166             
1 43570U 18061B   26117.43379784  .00000272  00000+0  89923-4 0  9992
2 43570  86.3939  77.9662 0002355  83.9131 276.2333 14.34218598406120
IRIDIUM 158             
1 43571U 18061C   26117.40206580  .00000037  00000+0  61573-5 0  9994
2 43571  86.3939  77.9894 0002288  89.5605 270.5853 14.34217747406085
IRIDIUM 165             
1 43572U 18061D   26117.42743628  .00000033  00000+0  47467-5 0  9998
2 43572  86.3941  78.0242 0002343  83.8043 276.3419 14.34217645406116
IRIDIUM 155             
1 43573U 18061E   26117.38938073  .00000062  00000+0  15047-4 0  9994
2 43573  86.3937  77.9116 0002393  87.7635 272.3835 14.34217716406077
IRIDIUM 154             
1 43574U 18061F   26117.37035272  .00000082  00000+0  22358-4 0  9998
2 43574  86.3941  78.0508 0002309  82.7596 277.3862 14.34217782406122
IRIDIUM 163             
1 43575U 18061G   26117.35132441  .00000186  00000+0  59308-4 0  9993
2 43575  86.3940  77.9756 0002223  89.3613 270.7838 14.34218613406093
IRIDIUM 156             
1 43576U 18061H   26117.39572360  .00000057  00000+0  13463-4 0  9995
2 43576  86.3938  77.9642 0002423  86.7903 273.3570 14.34217775406090
IRIDIUM 164             
1 43577U 18061J   26117.44646376  .00000148  00000+0  45725-4 0  9998
2 43577  86.3940  77.9824 0002266  81.0628 279.0824 14.34217380406146
IRIDIUM 159             
1 43578U 18061K   26117.41475050 -.00000011  00000+0 -11095-4 0  9999
2 43578  86.3940  77.9340 0002053  87.4128 272.7303 14.34217599406109
IRIDIUM 180             
1 43922U 19002A   26117.41424558  .00000196  00000+0  63072-4 0  9999
2 43922  86.4015  14.8159 0002090  85.6686 274.4748 14.34218682381719
IRIDIUM 176             
1 43923U 19002B   26117.45506784  .00000793  00000+0  12190-3 0  9993
2 43923  86.6134  14.7496 0002468  82.1023 278.0474 14.72259697391780
IRIDIUM 168             
1 43924U 19002C   26117.26837841  .00000263  00000+0  86839-4 0  9998
2 43924  86.4016  14.9525 0002148  84.5370 275.6071 14.34220643381679
